[{"OBJECT_NAME":"IXPE","OBJECT_ID":"2021-121A","EPOCH":"2026-03-10T00:00:02.999808","MEAN_MOTION":15.09223379,"ECCENTRICITY":0.00072712,"INCLINATION":0.2307,"RA_OF_ASC_NODE":347.0223,"ARG_OF_PERICENTER":20.3591,"MEAN_ANOMALY":57.9535,"EPHEMERIS_TYPE":0,"CLASSIFICATION_TYPE":"U","NORAD_CAT_ID":49954,"ELEMENT_SET_NO":999,"REV_AT_EPOCH":584,"BSTAR":0.0008624183,"MEAN_MOTION_DOT":0.00015078,"MEAN_MOTION_DDOT":0},{"OBJECT_NAME":"STARLINK-3534","OBJECT_ID":"2022-029AJ","EPOCH":"2026-03-09T06:22:39.234432","MEAN_MOTION":15.08841795,"ECCENTRICITY":0.00014115,"INCLINATION":53.2177,"RA_OF_ASC_NODE":81.0237,"ARG_OF_PERICENTER":94.5069,"MEAN_ANOMALY":265.6085,"EPHEMERIS_TYPE":0,"CLASSIFICATION_TYPE":"U","NORAD_CAT_ID":52120,"ELEMENT_SET_NO":999,"REV_AT_EPOCH":22073,"BSTAR":-6.091861e-6,"MEAN_MOTION_DOT":-3.85e-6,"MEAN_MOTION_DDOT":0}]
